[{"OBJECT_NAME":"STARLINK-1357","OBJECT_ID":"2020-025AL","EPOCH":"2021-09-11T02:33:02.443392","MEAN_MOTION":15.06397304,"ECCENTRICITY":0.0001038,"INCLINATION":53.0532,"RA_OF_ASC_NODE":251.4928,"ARG_OF_PERICENTER":52.4406,"MEAN_ANOMALY":307.6677,"EPHEMERIS_TYPE":0,"CLASSIFICATION_TYPE":"U","NORAD_CAT_ID":45565,"ELEMENT_SET_NO":999,"REV_AT_EPOCH":7749,"BSTAR":-1.0434e-5,"MEAN_MOTION_DOT":-4.37e-6,"MEAN_MOTION_DDOT":0},{"OBJECT_NAME":"STARLINK-1358","OBJECT_ID":"2020-025AM","EPOCH":"2021-09-10T23:43:11.128800","MEAN_MOTION":15.06396641,"ECCENTRICITY":9.12e-5,"INCLINATION":53.056,"RA_OF_ASC_NODE":252.0165,"ARG_OF_PERICENTER":62.4008,"MEAN_ANOMALY":297.7073,"EPHEMERIS_TYPE":0,"CLASSIFICATION_TYPE":"U","NORAD_CAT_ID":45566,"ELEMENT_SET_NO":999,"REV_AT_EPOCH":7747,"BSTAR":-6.1775e-5,"MEAN_MOTION_DOT":-1.201e-5,"MEAN_MOTION_DDOT":0},{"OBJECT_NAME":"STARLINK-1361","OBJECT_ID":"2020-025AN","EPOCH":"2021-09-11T03:10:11.183232","MEAN_MOTION":15.06395919,"ECCENTRICITY":0.0001049,"INCLINATION":53.0529,"RA_OF_ASC_NODE":251.3762,"ARG_OF_PERICENTER":62.5687,"MEAN_ANOMALY":297.5409,"EPHEMERIS_TYPE":0,"CLASSIFICATION_TYPE":"U","NORAD_CAT_ID":45567,"ELEMENT_SET_NO":999,"REV_AT_EPOCH":7749,"BSTAR":6.9107e-5,"MEAN_MOTION_DOT":7.48e-6,"MEAN_MOTION_DDOT":0},{"OBJECT_NAME":"STARLINK-1363","OBJECT_ID":"2020-025AP","EPOCH":"2021-09-10T12:38:21.124896","MEAN_MOTION":15.06397824,"ECCENTRICITY":0.0001089,"INCLINATION":53.0534,"RA_OF_ASC_NODE":254.0957,"ARG_OF_PERICENTER":67.4302,"MEAN_ANOMALY":292.6802,"EPHEMERIS_TYPE":0,"CLASSIFICATION_TYPE":"U","NORAD_CAT_ID":45568,"ELEMENT_SET_NO":999,"REV_AT_EPOCH":7800,"BSTAR":8.2975e-5,"MEAN_MOTION_DOT":9.55e-6,"MEAN_MOTION_DDOT":0},{"OBJECT_NAME":"STARLINK-1366","OBJECT_ID":"2020-025AQ","EPOCH":"2021-09-10T09:44:33.806112","MEAN_MOTION":15.06395127,"ECCENTRICITY":0.0001149,"INCLINATION":53.0535,"RA_OF_ASC_NODE":254.6348,"ARG_OF_PERICENTER":85.0451,"MEAN_ANOMALY":275.0669,"EPHEMERIS_TYPE":0,"CLASSIFICATION_TYPE":"U","NORAD_CAT_ID":45569,"ELEMENT_SET_NO":999,"REV_AT_EPOCH":7798,"BSTAR":-9.2836e-6,"MEAN_MOTION_DOT":-4.2e-6,"MEAN_MOTION_DDOT":0},{"OBJECT_NAME":"STARLINK-1376","OBJECT_ID":"2020-025AR","EPOCH":"2021-09-10T12:45:01.317600","MEAN_MOTION":15.06393065,"ECCENTRICITY":0.0001348,"INCLINATION":53.0529,"RA_OF_ASC_NODE":254.0742,"ARG_OF_PERICENTER":86.1056,"MEAN_ANOMALY":274.0087,"EPHEMERIS_TYPE":0,"CLASSIFICATION_TYPE":"U","NORAD_CAT_ID":45570,"ELEMENT_SET_NO":999,"REV_AT_EPOCH":7800,"BSTAR":-2.812e-5,"MEAN_MOTION_DOT":-7.0e-6,"MEAN_MOTION_DDOT":0},{"OBJECT_NAME":"STARLINK-1261","OBJECT_ID":"2020-025AS","EPOCH":"2021-09-11T01:51:53.673984","MEAN_MOTION":15.06393925,"ECCENTRICITY":9.84e-5,"INCLINATION":53.0532,"RA_OF_ASC_NODE":241.6235,"ARG_OF_PERICENTER":77.9812,"MEAN_ANOMALY":282.1288,"EPHEMERIS_TYPE":0,"CLASSIFICATION_TYPE":"U","NORAD_CAT_ID":45571,"ELEMENT_SET_NO":999,"REV_AT_EPOCH":7763,"BSTAR":-7.5558e-5,"MEAN_MOTION_DOT":-1.406e-5,"MEAN_MOTION_DDOT":0},{"OBJECT_NAME":"STARLINK-1320","OBJECT_ID":"2020-025AT","EPOCH":"2021-09-10T11:21:25.648992","MEAN_MOTION":15.06392681,"ECCENTRICITY":9.83e-5,"INCLINATION":53.0539,"RA_OF_ASC_NODE":244.3373,"ARG_OF_PERICENTER":73.0886,"MEAN_ANOMALY":287.021,"EPHEMERIS_TYPE":0,"CLASSIFICATION_TYPE":"U","NORAD_CAT_ID":45572,"ELEMENT_SET_NO":999,"REV_AT_EPOCH":7814,"BSTAR":-4.2595e-5,"MEAN_MOTION_DOT":-9.15e-6,"MEAN_MOTION_DDOT":0},{"OBJECT_NAME":"STARLINK-1321","OBJECT_ID":"2020-025AU","EPOCH":"2021-09-10T10:49:34.655520","MEAN_MOTION":15.06402524,"ECCENTRICITY":0.000152,"INCLINATION":53.0537,"RA_OF_ASC_NODE":244.4307,"ARG_OF_PERICENTER":76.8411,"MEAN_ANOMALY":283.2748,"EPHEMERIS_TYPE":0,"CLASSIFICATION_TYPE":"U","NORAD_CAT_ID":45573,"ELEMENT_SET_NO":999,"REV_AT_EPOCH":7783,"BSTAR":0.00010096,"MEAN_MOTION_DOT":1.223e-5,"MEAN_MOTION_DDOT":0},{"OBJECT_NAME":"STARLINK-1324","OBJECT_ID":"2020-025AV","EPOCH":"2021-09-10T22:35:30.356448","MEAN_MOTION":15.06396979,"ECCENTRICITY":0.0001016,"INCLINATION":53.0539,"RA_OF_ASC_NODE":242.2315,"ARG_OF_PERICENTER":67.7548,"MEAN_ANOMALY":292.3549,"EPHEMERIS_TYPE":0,"CLASSIFICATION_TYPE":"U","NORAD_CAT_ID":45574,"ELEMENT_SET_NO":999,"REV_AT_EPOCH":7822,"BSTAR":3.0041e-5,"MEAN_MOTION_DOT":1.66e-6,"MEAN_MOTION_DDOT":0},{"OBJECT_NAME":"STARLINK-1326","OBJECT_ID":"2020-025AW","EPOCH":"2021-09-10T11:35:38.893920","MEAN_MOTION":15.07730024,"ECCENTRICITY":0.000123,"INCLINATION":53.0002,"RA_OF_ASC_NODE":241.6001,"ARG_OF_PERICENTER":65.8264,"MEAN_ANOMALY":294.2853,"EPHEMERIS_TYPE":0,"CLASSIFICATION_TYPE":"U","NORAD_CAT_ID":45575,"ELEMENT_SET_NO":999,"REV_AT_EPOCH":7817,"BSTAR":0.00030063,"MEAN_MOTION_DOT":4.36e-5,"MEAN_MOTION_DDOT":0},{"OBJECT_NAME":"STARLINK-1328","OBJECT_ID":"2020-025AX","EPOCH":"2021-09-10T08:52:48.656640","MEAN_MOTION":15.06400006,"ECCENTRICITY":0.0001082,"INCLINATION":53.0529,"RA_OF_ASC_NODE":244.7974,"ARG_OF_PERICENTER":56.184,"MEAN_ANOMALY":303.9252,"EPHEMERIS_TYPE":0,"CLASSIFICATION_TYPE":"U","NORAD_CAT_ID":45576,"ELEMENT_SET_NO":999,"REV_AT_EPOCH":7813,"BSTAR":-4.4986e-5,"MEAN_MOTION_DOT":-9.51e-6,"MEAN_MOTION_DDOT":0},{"OBJECT_NAME":"STARLINK-1330","OBJECT_ID":"2020-025AY","EPOCH":"2021-09-11T02:55:35.753376","MEAN_MOTION":15.06403044,"ECCENTRICITY":0.0001105,"INCLINATION":53.0545,"RA_OF_ASC_NODE":241.4225,"ARG_OF_PERICENTER":69.2765,"MEAN_ANOMALY":290.8342,"EPHEMERIS_TYPE":0,"CLASSIFICATION_TYPE":"U","NORAD_CAT_ID":45577,"ELEMENT_SET_NO":999,"REV_AT_EPOCH":7763,"BSTAR":0.0001075,"MEAN_MOTION_DOT":1.32e-5,"MEAN_MOTION_DDOT":0},{"OBJECT_NAME":"STARLINK-1331","OBJECT_ID":"2020-025AZ","EPOCH":"2021-09-11T02:13:07.866624","MEAN_MOTION":15.06395928,"ECCENTRICITY":0.00015,"INCLINATION":53.0542,"RA_OF_ASC_NODE":241.5519,"ARG_OF_PERICENTER":74.1133,"MEAN_ANOMALY":286.0021,"EPHEMERIS_TYPE":0,"CLASSIFICATION_TYPE":"U","NORAD_CAT_ID":45578,"ELEMENT_SET_NO":999,"REV_AT_EPOCH":7763,"BSTAR":-7.3909e-5,"MEAN_MOTION_DOT":-1.382e-5,"MEAN_MOTION_DDOT":0},{"OBJECT_NAME":"STARLINK-1332","OBJECT_ID":"2020-025BA","EPOCH":"2021-09-10T08:30:12.390912","MEAN_MOTION":15.06393271,"ECCENTRICITY":0.0004001,"INCLINATION":53.0534,"RA_OF_ASC_NODE":204.8651,"ARG_OF_PERICENTER":218.7781,"MEAN_ANOMALY":141.2921,"EPHEMERIS_TYPE":0,"CLASSIFICATION_TYPE":"U","NORAD_CAT_ID":45579,"ELEMENT_SET_NO":999,"REV_AT_EPOCH":7809,"BSTAR":-3.4661e-5,"MEAN_MOTION_DOT":-7.99e-6,"MEAN_MOTION_DDOT":0},{"OBJECT_NAME":"STARLINK-1333","OBJECT_ID":"2020-025BB","EPOCH":"2021-09-10T10:27:01.713600","MEAN_MOTION":15.06400309,"ECCENTRICITY":0.0001128,"INCLINATION":53.0534,"RA_OF_ASC_NODE":254.501,"ARG_OF_PERICENTER":73.8125,"MEAN_ANOMALY":286.2989,"EPHEMERIS_TYPE":0,"CLASSIFICATION_TYPE":"U","NORAD_CAT_ID":45580,"ELEMENT_SET_NO":999,"REV_AT_EPOCH":7799,"BSTAR":0.00011118,"MEAN_MOTION_DOT":1.375e-5,"MEAN_MOTION_DDOT":0},{"OBJECT_NAME":"STARLINK-1335","OBJECT_ID":"2020-025BC","EPOCH":"2021-09-10T23:17:58.715808","MEAN_MOTION":15.06399673,"ECCENTRICITY":0.0001459,"INCLINATION":53.0533,"RA_OF_ASC_NODE":242.1004,"ARG_OF_PERICENTER":65.4561,"MEAN_ANOMALY":294.658,"EPHEMERIS_TYPE":0,"CLASSIFICATION_TYPE":"U","NORAD_CAT_ID":45581,"ELEMENT_SET_NO":999,"REV_AT_EPOCH":7761,"BSTAR":6.7132e-5,"MEAN_MOTION_DOT":7.19e-6,"MEAN_MOTION_DDOT":0}]
