STARLINK-1357           
1 45565U 20025AL  21254.10627828 -.00000437  00000-0 -10434-4 0  9994
2 45565  53.0532 251.4928 0001038  52.4406 307.6677 15.06397304 77490
STARLINK-1358           
1 45566U 20025AM  21253.98832325 -.00001201  00000-0 -61775-4 0  9994
2 45566  53.0560 252.0165 0000912  62.4008 297.7073 15.06396641 77471
STARLINK-1361           
1 45567U 20025AN  21254.13207388  .00000748  00000-0  69107-4 0  9998
2 45567  53.0529 251.3762 0001049  62.5687 297.5409 15.06395919 77498
STARLINK-1363           
1 45568U 20025AP  21253.52663339  .00000955  00000-0  82975-4 0  9991
2 45568  53.0534 254.0957 0001089  67.4302 292.6802 15.06397824 78001
STARLINK-1366           
1 45569U 20025AQ  21253.40594683 -.00000420  00000-0 -92836-5 0  9991
2 45569  53.0535 254.6348 0001149  85.0451 275.0669 15.06395127 77987
STARLINK-1376           
1 45570U 20025AR  21253.53126525 -.00000700  00000-0 -28120-4 0  9998
2 45570  53.0529 254.0742 0001348  86.1056 274.0087 15.06393065 78004
STARLINK-1261           
1 45571U 20025AS  21254.07770456 -.00001406  00000-0 -75558-4 0  9998
2 45571  53.0532 241.6235 0000984  77.9812 282.1288 15.06393925 77637
STARLINK-1320           
1 45572U 20025AT  21253.47321353 -.00000915  00000-0 -42595-4 0  9999
2 45572  53.0539 244.3373 0000983  73.0886 287.0210 15.06392681 78149
STARLINK-1321           
1 45573U 20025AU  21253.45109555  .00001223  00000-0  10096-3 0  9997
2 45573  53.0537 244.4307 0001520  76.8411 283.2748 15.06402524 77836
STARLINK-1324           
1 45574U 20025AV  21253.94132357  .00000166  00000-0  30041-4 0  9996
2 45574  53.0539 242.2315 0001016  67.7548 292.3549 15.06396979 78224
STARLINK-1326           
1 45575U 20025AW  21253.48308905  .00004360  00000-0  30063-3 0  9993
2 45575  53.0002 241.6001 0001230  65.8264 294.2853 15.07730024 78174
STARLINK-1328           
1 45576U 20025AX  21253.37000760 -.00000951  00000-0 -44986-4 0  9994
2 45576  53.0529 244.7974 0001082  56.1840 303.9252 15.06400006 78130
STARLINK-1330           
1 45577U 20025AY  21254.12194159  .00001320  00000-0  10750-3 0  9995
2 45577  53.0545 241.4225 0001105  69.2765 290.8342 15.06403044 77632
STARLINK-1331           
1 45578U 20025AZ  21254.09245216 -.00001382  00000-0 -73909-4 0  9999
2 45578  53.0542 241.5519 0001500  74.1133 286.0021 15.06395928 77632
STARLINK-1332           
1 45579U 20025BA  21253.35431008 -.00000799  00000-0 -34661-4 0  9997
2 45579  53.0534 204.8651 0004001 218.7781 141.2921 15.06393271 78098
STARLINK-1333           
1 45580U 20025BB  21253.43543650  .00001375  00000-0  11118-3 0  9995
2 45580  53.0534 254.5010 0001128  73.8125 286.2989 15.06400309 77993
STARLINK-1335           
1 45581U 20025BC  21253.97081847  .00000719  00000-0  67132-4 0  9999
2 45581  53.0533 242.1004 0001459  65.4561 294.6580 15.06399673 77617
